CCSDS_OMM_VERS,COMMENT,CREATION_DATE,ORIGINATOR,OBJECT_NAME,OBJECT_ID,CENTER_NAME,REF_FRAME,TIME_SYSTEM,MEAN_ELEMENT_THEORY,EPOCH,MEAN_MOTION,ECCENTRICITY,INCLINATION,RA_OF_ASC_NODE,ARG_OF_PERICENTER,MEAN_ANOMALY,EPHEMERIS_TYPE,CLASSIFICATION_TYPE,NORAD_CAT_ID,ELEMENT_SET_NO,REV_AT_EPOCH,BSTAR,MEAN_MOTION_DOT,MEAN_MOTION_DDOT,SEMIMAJOR_AXIS,PERIOD,APOAPSIS,PERIAPSIS,OBJECT_TYPE,RCS_SIZE,COUNTRY_CODE,LAUNCH_DATE,SITE,DECAY_DATE,FILE,GP_ID,TLE_LINE0,TLE_LINE1,TLE_LINE2
3.0,GENERATED VIA SPACE-TRACK.ORG API,2004-08-17T15:22:57,18 SPCS,SL-12 DEB,1998-077L,EARTH,TEME,UTC,SGP4,1998-12-31T15:27:35.574336,16.12833716,0.0143469,65.0415,50.3366,66.4098,295.2069,0,U,25603,999,3,0.0013132,0.16455958,7.8762e-06,6617.222,89.283,334.023,144.15,DEBRIS,,,,,1998-12-31,35508,29329765,0 SL-12 DEB,1 25603U 98077L   98365.64416174  .16455958  78762-5  13132-2 0  9991,2 25603 065.0415 050.3366 0143469 066.4098 295.2069 16.12833716    36
3.0,GENERATED VIA SPACE-TRACK.ORG API,2025-02-08T17:45:34,18 SPCS,FLOCK 4S 11,2021-006BB,EARTH,TEME,UTC,SGP4,2025-02-08T03:49:04.567296,16.40267002,0.0010162,97.2612,101.3898,272.1663,87.8474,0,U,47462,999,22472,0.00084247,0.11335022,2.4572e-06,6543.229,87.791,171.744,158.445,PAYLOAD,SMALL,US,2021-01-24,AFETR,2025-02-11,4634601,280225130,0 FLOCK 4S 11,1 47462U 21006BB  25039.15908064  .11335022  24572-5  84247-3 0  9994,2 47462  97.2612 101.3898 0010162 272.1663  87.8474 16.40267002224722
3.0,GENERATED VIA SPACE-TRACK.ORG API,2004-08-17T15:08:00,18 SPCS,COBE DEB,1989-089BY,EARTH,TEME,UTC,SGP4,1996-10-08T02:36:14.248800,14.37103186,0.0044008,99.1734,332.9553,4.8043,356.8155,0,U,23077,999,13941,0.0058678,0.00017622,0.0,7146.227,100.201,799.541,736.643,DEBRIS,SMALL,US,1989-11-18,AFWTR,1998-03-01,35209,24015066,0 COBE DEB,1 23077U 89089BY  96282.10849825 +.00017622 +00000-0 +58678-2 0  9991,2 23077 099.1734 332.9553 0044008 004.8043 356.8155 14.37103186139414
3.0,GENERATED VIA SPACE-TRACK.ORG API,2024-07-14T03:26:14,18 SPCS,STARLINK-32117,2024-113T,EARTH,TEME,UTC,SGP4,2024-07-14T03:08:30.410592,16.49579827,0.0011381,53.1393,282.8069,0.3117,70.0832,0,U,60076,999,481,0.00012056,0.10986745,1.2811e-05,6518.579,87.295,147.863,133.025,PAYLOAD,LARGE,US,2024-06-19,AFWTR,2024-07-14,4377100,261961636,0 STARLINK-32117,1 60076U 24113T   24196.13090753  .10986745  12811-4  12056-3 0  9994,2 60076  53.1393 282.8069 0011381   0.3117  70.0832 16.49579827  4817
3.0,GENERATED VIA SPACE-TRACK.ORG API,2023-04-23T07:16:12,18 SPCS,XW-2A,2015-049E,EARTH,TEME,UTC,SGP4,2023-04-22T10:28:18.609600,16.51931608,0.0011783,97.0819,181.5568,175.5276,309.8044,0,U,40903,999,42764,0.00015498,0.188144,2.5108e-06,6512.391,87.171,141.93,126.582,PAYLOAD,MEDIUM,PRC,2015-09-19,TSC,2023-04-25,3892381,230600203,0 XW-2A,1 40903U 15049E   23112.43632650  .18814400  25108-5  15498-3 0  9990,2 40903  97.0819 181.5568 0011783 175.5276 309.8044 16.51931608427640
3.0,GENERATED VIA SPACE-TRACK.ORG API,2004-08-15T23:44:02,18 SPCS,SALYUT 6 DEB,1977-097AT,EARTH,TEME,UTC,SGP4,1979-07-27T05:21:40.031136,15.82302666,0.0013079,51.6181,278.3499,31.511,328.6674,0,U,11435,999,397,3.857e-05,0.00294009,0.0,6702.071,91.006,332.702,315.171,DEBRIS,,,,,1979-08-25,34079,11017637,0 SALYUT 6 DEB,1 11435U 77097 AT 79208.22337999  .00294009 +00000-0 +03857-3 0  9994,2 11435 051.6181 278.3499 0013079 031.5110 328.6674 15.82302666003975
3.0,GENERATED VIA SPACE-TRACK.ORG API,2004-08-16T23:15:23,18 SPCS,SALYUT 6 DEB,1977-097CY,EARTH,TEME,UTC,SGP4,1981-05-10T12:05:52.858464,15.8054934,9.38e-05,51.6254,162.8633,270.3751,89.7143,0,U,12438,999,20805,0.00069886,0.00135491,0.0,6707.027,91.107,329.521,328.263,DEBRIS,MEDIUM,CIS,1977-09-29,TTMTR,1981-06-12,34334,12262436,0 SALYUT 6 DEB,1 12438U 77097 CY 81130.50408401  .00135491 +00000-0 +69886-3 0  9996,2 12438 051.6254 162.8633 0000938 270.3751 089.7143 15.80549340208053
3.0,GENERATED VIA SPACE-TRACK.ORG API,2004-08-16T23:24:14,18 SPCS,SOLWIND DEB,1979-017DJ,EARTH,TEME,UTC,SGP4,1986-02-07T00:08:58.378271,15.08655954,0.0070732,97.6288,325.8102,283.4435,75.915,0,U,16352,999,2113,0.0067382,0.00111792,0.0,6918.447,95.449,589.247,491.376,DEBRIS,,,,,1986-05-12,34511,14997019,0 SOLWIND DEB,1 16352U 79017DJ  86038.00623123  .00111792 +00000-0 +67382-2 0  9992,2 16352 097.6288 325.8102 0070732 283.4435 075.9150 15.08655954021130
3.0,GENERATED VIA SPACE-TRACK.ORG API,2004-08-17T15:25:27,18 SPCS,PEGASUS DEB,1994-029LC,EARTH,TEME,UTC,SGP4,1999-05-11T13:30:39.623040,16.05327096,0.0013126,81.7183,176.3163,241.9554,118.1102,0,U,24229,999,15938,0.014794,0.10371563,0.0,6637.834,89.701,268.412,250.986,DEBRIS,SMALL,US,1994-05-19,AFWTR,1999-05-12,35558,30370546,0 PEGASUS DEB,1 24229U 94029LC  99131.56295860  .10371563  00000-0  14794-1 0  9999,2 24229 081.7183 176.3163 0013126 241.9554 118.1102 16.05327096159388
3.0,GENERATED VIA SPACE-TRACK.ORG API,2004-08-15T23:35:50,18 SPCS,DIAMANT DEB,1965-096C,EARTH,TEME,UTC,SGP4,1967-03-02T03:57:22.072319,14.83066319,0.0238696,34.2556,23.9387,270.176,87.1515,0,U,1938,999,6379,0.0,0.00850232,0.0,6997.803,97.096,786.703,452.633,DEBRIS,,,,,1967-03-25,33915,8745967,0 DIAMANT DEB,1 01938U 65096  C 67061.16483880  .00850232 +00000-0 +00000-0 0  9995,2 01938 034.2556 023.9387 0238696 270.1760 087.1515 14.83066319063790
3.0,GENERATED VIA SPACE-TRACK.ORG API,2025-02-10T15:06:18,18 SPCS,STARLINK-1864,2020-088AF,EARTH,TEME,UTC,SGP4,2025-02-10T13:30:17.729280,16.43579509,0.0005981,53.0223,227.1644,278.3259,196.7906,0,U,47151,999,23346,0.00058209,0.14660985,1.2477e-05,6534.435,87.614,160.208,152.392,PAYLOAD,LARGE,US,2020-11-25,AFETR,2025-02-10,4636560,280370534,0 STARLINK-1864,1 47151U 20088AF  25041.56270520  .14660985  12477-4  58209-3 0  9996,2 47151  53.0223 227.1644 0005981 278.3259 196.7906 16.43579509233465
3.0,GENERATED VIA SPACE-TRACK.ORG API,2023-03-26T14:56:13,18 SPCS,FREGAT DEB,2011-037GR,EARTH,TEME,UTC,SGP4,2023-03-20T19:42:11.800224,14.29301358,0.0497932,51.5537,301.7209,95.348,270.4449,0,U,45990,999,11762,0.25206,0.02831897,0.0,7172.204,100.749,1151.196,436.942,DEBRIS,SMALL,CIS,2011-07-18,TTMTR,2023-04-06,3871629,228887401,0 FREGAT DEB,1 45990U 11037GR  23079.82096991  .02831897  00000-0  25206+0 0  9996,2 45990  51.5537 301.7209 0497932  95.3480 270.4449 14.29301358117623
3.0,GENERATED VIA SPACE-TRACK.ORG API,2023-02-06T06:26:12,18 SPCS,WORLDVIEW 2 DEB,2009-055T,EARTH,TEME,UTC,SGP4,2023-02-05T22:29:07.445472,15.56081689,0.0036934,98.591,192.67,302.9513,56.8188,0,U,43392,999,34065,0.031657,0.02600155,0.0,6777.147,92.54,424.043,373.981,DEBRIS,SMALL,US,2009-10-08,AFWTR,2023-02-09,3774236,224562755,0 WORLDVIEW 2 DEB,1 43392U 09055T   23036.93689173  .02600155  00000-0  31657-1 0  9992,2 43392  98.5910 192.6700 0036934 302.9513  56.8188 15.56081689340651
3.0,GENERATED VIA SPACE-TRACK.ORG API,2004-08-17T15:13:24,18 SPCS,PEGASUS DEB,1994-029WY,EARTH,TEME,UTC,SGP4,1998-03-24T10:41:35.677248,15.97711278,0.0019834,81.9264,244.9399,323.0069,37.7571,0,U,24548,999,9859,0.030775,0.08801942,0.23233,6658.911,90.128,293.983,267.569,DEBRIS,SMALL,US,1994-05-19,AFWTR,1998-03-24,35317,27122364,0 PEGASUS DEB,1 24548U 94029WY  98083.44555182  .08801942  23233+0  30775-1 0  9996,2 24548 081.9264 244.9399 0019834 323.0069 037.7571 15.97711278 98592
3.0,GENERATED VIA SPACE-TRACK.ORG API,2005-05-02T23:40:10,18 SPCS,COSMOS 1461 DEB,1983-044BV,EARTH,TEME,UTC,SGP4,1989-03-28T12:56:25.253088,15.95568153,0.0024634,64.9707,150.0724,22.6053,341.1831,0,U,16778,999,20352,0.038827,0.16189762,2.8e-06,6664.873,90.249,303.156,270.319,DEBRIS,SMALL,CIS,1983-05-07,TTMTR,1989-03-29,131042,43943759,0 COSMOS 1461 DEB,1 16778U 83044 BV 89087.53918117  .16189762 +28000-5 +38827-1 0  9999,2 16778 064.9707 150.0724 0024634 022.6053 341.1831 15.95568153203521
3.0,GENERATED VIA SPACE-TRACK.ORG API,2004-08-15T23:36:44,18 SPCS,DELTA 1 DEB,1969-064G,EARTH,TEME,UTC,SGP4,1969-11-23T16:15:42.562080,12.32595574,0.157246,30.1884,80.0644,111.6139,265.8896,0,U,4059,999,1316,0.0,0.02042743,0.0,7916.29,116.826,2782.96,293.35,DEBRIS,,,,,1969-12-30,33933,8833189,0 DELTA 1 DEB,1 04059U 69064  G 69327.67757595  .02042743 +00000-0 +00000-0 0  9993,2 04059 030.1884 080.0644 1572460 111.6139 265.8896 12.32595574013161
3.0,GENERATED VIA SPACE-TRACK.ORG API,2021-07-16T18:02:32,18 SPCS,COSMOS 2251 DEB,1993-036BBL,EARTH,TEME,UTC,SGP4,2021-05-12T00:21:48.877056,15.68804711,0.0006889,73.9185,239.2237,117.1346,243.0579,0,U,36461,999,62929,0.00091016,0.0010552,0.0,6740.456,91.79,366.964,357.677,DEBRIS,SMALL,CIS,1993-06-16,PKMTR,2021-07-06,3077908,181009046,0 COSMOS 2251 DEB,1 36461U 93036BBL 21132.01514904  .00105520  00000-0  91016-3 0  9997,2 36461  73.9185 239.2237 0006889 117.1346 243.0579 15.68804711629296
3.0,GENERATED VIA SPACE-TRACK.ORG API,2025-01-24T17:46:49,18 SPCS,BEESAT-8,2021-022AP,EARTH,TEME,UTC,SGP4,2025-01-24T05:18:12.637440,16.254101,0.0005722,97.4815,300.494,122.1753,238.0094,0,U,48085,999,21212,0.0021242,0.06165242,2.5331e-06,6583.041,88.593,208.672,201.139,PAYLOAD,SMALL,GER,2021-03-22,TTMTR,2025-01-28,4620053,278998144,0 BEESAT-8,1 48085U 21022AP  25024.22097960  .06165242  25331-5  21242-2 0  9998,2 48085  97.4815 300.4940 0005722 122.1753 238.0094 16.25410100212122
3.0,GENERATED VIA SPACE-TRACK.ORG API,2004-08-15T23:36:23,18 SPCS,SL-6 R/B,1968-027C,EARTH,TEME,UTC,SGP4,1968-04-07T14:24:33.019488,16.2360077,0.0043706,51.7888,357.8583,33.9138,326.4674,0,U,3180,999,3,0.0,0.08949001,0.0,6587.934,88.691,238.592,181.006,ROCKET BODY,,,,,1968-04-09,33926,8786204,0 SL-6 R/B,1 03180U 68027  C 68098.60038217  .08949001 +00000-0 +00000-0 0  9994,2 03180 051.7888 357.8583 0043706 033.9138 326.4674 16.23600770000034
3.0,GENERATED VIA SPACE-TRACK.ORG API,2004-08-15T23:35:47,18 SPCS,SL-4 R/B,1966-015B,EARTH,TEME,UTC,SGP4,1966-02-23T07:05:35.879424,15.1150656,0.050065,51.8266,103.5442,66.1289,299.0506,0,U,2071,999,7,0.0,0.0,0.0,6909.746,95.269,877.547,185.674,ROCKET BODY,,,,,1966-04-29,33914,8719158,0 SL-4 R/B,1 02071U 66015  B 66054.29555416  .00000000 +00000-0 +00000-0 0  9996,2 02071 051.8266 103.5442 0500650 066.1289 299.0506 15.11506560000075
